[
  {
    "name": "EYESAT A (AO-27)",
    "line1": "1 22825U 93061C   26171.42614367  .00000064  00000+0  41444-4 0  9998",
    "line2": "2 22825  98.6879 238.8386 0009542  91.4815 268.7461 14.30943014707461"
  },
  {
    "name": "ITAMSAT (IO-26)",
    "line1": "1 22826U 93061D   26171.12497805  .00000065  00000+0  41439-4 0  9997",
    "line2": "2 22826  98.6826 238.4553 0010030  77.4626 282.7678 14.31369966707739"
  },
  {
    "name": "RADIO ROSTO (RS15)",
    "line1": "1 23439U 94085A   26171.39747735 -.00000030  00000+0  35297-3 0  9991",
    "line2": "2 23439  64.8186 298.0240 0156038   3.2812 356.9100 11.27583497296266"
  },
  {
    "name": "JAS-2 (FO-29)",
    "line1": "1 24278U 96046B   26171.34242250 -.00000016  00000+0  16133-4 0  9992",
    "line2": "2 24278  98.5237  19.7822 0350925  88.2682 275.8612 13.53274552473592"
  },
  {
    "name": "TECHSAT 1B (GO-32)",
    "line1": "1 25397U 98043D   26171.43605319  .00000032  00000+0  33890-4 0  9999",
    "line2": "2 25397  99.0068 164.2767 0001219 156.5266 203.5967 14.24428915451795"
  },
  {
    "name": "ISS (ZARYA)",
    "line1": "1 25544U 98067A   26172.76913116  .00009060  00000+0  17028-3 0  9997",
    "line2": "2 25544  51.6326 277.4139 0004499 214.6152 145.4544 15.49357580572463"
  },
  {
    "name": "PCSAT (NO-44)",
    "line1": "1 26931U 01043C   26171.44204659  .00000049  00000+0  49145-4 0  9999",
    "line2": "2 26931  67.0502 235.8536 0006064 264.6719  95.3691 14.31957058290913"
  },
  {
    "name": "SAUDISAT 1C (SO-50)",
    "line1": "1 27607U 02058C   26171.45947406  .00000719  00000+0  10244-3 0  9993",
    "line2": "2 27607  64.5513 118.8607 0075194 261.8620  97.3951 14.83052787264944"
  },
  {
    "name": "CUTE-1 (CO-55)",
    "line1": "1 27844U 03031E   26170.56610412  .00000202  00000+0  10624-3 0  9992",
    "line2": "2 27844  98.6736 179.0951 0009689 171.1603 188.9749 14.24336935192018"
  },
  {
    "name": "CUBESAT XI-IV (CO-57)",
    "line1": "1 27848U 03031J   26170.97745452  .00000169  00000+0  93103-4 0  9990",
    "line2": "2 27848  98.6765 179.2116 0009219 188.6492 171.4529 14.23622052191779"
  },
  {
    "name": "MOZHAETS 4 (RS22)",
    "line1": "1 27939U 03042A   26172.56395240  .00000799  00000+0  13137-3 0  9993",
    "line2": "2 27939  98.3474 357.0459 0009954 253.7036 197.9632 14.73473438216193"
  },
  {
    "name": "IMAGE",
    "line1": "1 26113U 00017A   26162.34581823  .00000011  00000+0  22926-1 0  9995",
    "line2": "2 26113  94.2241 315.2958 7436383 288.4674   8.8959  1.68665984161407"
  },
  {
    "name": "CLUSTER II-FM7 (SAMBA)",
    "line1": "1 26410U 00041A   26172.60140140  .00004700  00000+0  00000+0 0  9991",
    "line2": "2 26410 149.9158  51.6298 9060197 268.8497 359.5612  0.44827461 20334"
  },
  {
    "name": "CLUSTER II-FM8 (TANGO)",
    "line1": "1 26464U 00045B   26170.68964110  .00004777  00000+0  00000+0 0  9995",
    "line2": "2 26464 150.1455  52.4796 9063456 269.5212   2.6313  0.44407361 20329"
  },
  {
    "name": "PHASE 3D (AO-40)",
    "line1": "1 26609U 00072B   26170.73224367 -.00000145  00000+0  00000+0 0  9991",
    "line2": "2 26609   9.4237 350.5334 7931286 179.2724 184.2732  1.25588319117548"
  },
  {
    "name": "FORTE",
    "line1": "1 24920U 97047A   26170.75669965  .00000110  00000+0  67422-4 0  9999",
    "line2": "2 24920  69.9539   8.2172 0024633 274.2276  85.6031 14.27946016499058"
  },
  {
    "name": "NOAA 15",
    "line1": "1 25338U 98030A   26171.41081008  .00000070  00000+0  46346-4 0  9993",
    "line2": "2 25338  98.5064 191.9564 0009830 345.0669  15.0221 14.27147527461757"
  },
  {
    "name": "ORSTED",
    "line1": "1 25635U 99008B   26171.28254205  .00000310  00000+0  76057-4 0  9994",
    "line2": "2 25635  96.4823  78.0948 0131980 176.0018 184.2270 14.51809486442411"
  },
  {
    "name": "LANDSAT 7",
    "line1": "1 25682U 99020A   26171.47363899  .00000294  00000+0  64787-4 0  9999",
    "line2": "2 25682  97.8580 174.9586 0001831  88.2552  65.3906 14.63919144446325"
  },
  {
    "name": "ORBCOMM FM36",
    "line1": "1 25984U 99065E   26171.23233994  .00000646  00000+0  25224-3 0  9992",
    "line2": "2 25984  45.0374 145.1294 0004959 328.6317  31.4236 14.39201742387422"
  },
  {
    "name": "DMSP 5D-3 F15 (USA 147)",
    "line1": "1 25991U 99067A   26171.41282122  .00000085  00000+0  64590-4 0  9996",
    "line2": "2 25991  98.9959 210.0080 0009830 359.8158 126.8856 14.17565570371106"
  },
  {
    "name": "OPAL (OO-38)",
    "line1": "1 26063U 00004C   26171.37804368  .00000106  00000+0  54362-4 0  9997",
    "line2": "2 26063 100.1909 108.7892 0036192  27.1177 333.1885 14.37965715383744"
  },
  {
    "name": "MEGSAT-1",
    "line1": "1 26546U 00057B   26171.39922367  .00001947  00000+0  14489-3 0  9992",
    "line2": "2 26546  64.5503  58.8203 0042344 283.4053  76.2345 15.05510149398149"
  },
  {
    "name": "ODIN",
    "line1": "1 26702U 01007A   26171.07824256  .00171166  00000+0  10523-2 0  9990",
    "line2": "2 26702  97.3813 212.2073 0006749 140.3393 219.8368 15.76711423389853"
  },
  {
    "name": "OMNI-M1",
    "line1": "1 26857U 01026A   26167.20907279 -.00000001  00000+0  00000+0 0  9995",
    "line2": "2 26857  44.8307 245.4893 0014194  53.4474 306.7446  3.92401638205538"
  },
  {
    "name": "PROBA-1",
    "line1": "1 26958U 01049B   26172.51752390  .00001532  00000+0  10192-3 0  9990",
    "line2": "2 26958  97.9594 181.2016 0056365 107.7234 253.0156 15.07505285344273"
  },
  {
    "name": "SPOT 5",
    "line1": "1 27421U 02021A   26171.33517234  .00000198  00000+0  51998-4 0  9999",
    "line2": "2 27421  97.9845 210.0590 0128181 266.6257  92.0271 14.54752565263301"
  },
  {
    "name": "FENGYUN 1D",
    "line1": "1 27431U 02024B   26171.41193200  .00000033  00000+0  43724-4 0  9991",
    "line2": "2 27431  98.9517 221.7278 0014558 231.2448 128.7422 14.10224912239932"
  },
  {
    "name": "CORIOLIS",
    "line1": "1 27640U 03001A   26171.43857340  .00000069  00000+0  53062-4 0  9998",
    "line2": "2 27640  98.7125 178.2738 0013553 199.0083 161.0590 14.19945602214680"
  },
  {
    "name": "IRS-P6 (RESOURCESAT-1)",
    "line1": "1 28051U 03046A   26172.56646388  .00000291  00000+0  11144-3 0  9998",
    "line2": "2 28051  98.1899 208.8664 0063540 330.2349 187.8624 14.36164252181154"
  }
]