OBJECT_NAME,OBJECT_ID,EPOCH,MEAN_MOTION,ECCENTRICITY,INCLINATION,RA_OF_ASC_NODE,ARG_OF_PERICENTER,MEAN_ANOMALY,EPHEMERIS_TYPE,CLASSIFICATION_TYPE,NORAD_CAT_ID,ELEMENT_SET_NO,REV_AT_EPOCH,BSTAR,MEAN_MOTION_DOT,MEAN_MOTION_DDOT
EYESAT A (AO-27),1993-061C,2026-06-20T10:13:38.813088,14.30943014,.0009542,98.6879,238.8386,91.4815,268.7461,0,U,22825,999,70746,.41444E-4,.64E-6,0
ITAMSAT (IO-26),1993-061D,2026-06-20T02:59:58.103520,14.31369966,.00100304,98.6826,238.4553,77.4626,282.7678,0,U,22826,999,70773,.41439208E-4,.65E-6,0
RADIO ROSTO (RS15),1994-085A,2026-06-20T09:32:22.043040,11.27583497,.0156038,64.8186,298.0240,3.2812,356.9100,0,U,23439,999,29626,.35297E-3,-.3E-6,0
JAS-2 (FO-29),1996-046B,2026-06-20T08:13:05.304000,13.53274552,.0350925,98.5237,19.7822,88.2682,275.8612,0,U,24278,999,47359,.16133E-4,-.16E-6,0
FORTE,1997-047A,2026-06-19T18:09:38.849760,14.27946016,.00246336,69.9539,8.2172,274.2276,85.6031,0,U,24920,999,49905,.67422308E-4,.11E-5,0
NOAA 15,1998-030A,2026-06-20T09:51:33.990912,14.27147527,.000983,98.5064,191.9564,345.0669,15.0221,0,U,25338,999,46175,.46346E-4,.7E-6,0
TECHSAT 1B (GO-32),1998-043D,2026-06-20T10:27:54.995616,14.24428915,.0001219,99.0068,164.2767,156.5266,203.5967,0,U,25397,999,45179,.3389E-4,.32E-6,0
ISS (ZARYA),1998-067A,2026-06-21T18:27:32.932224,15.49357580,.0004499,51.6326,277.4139,214.6152,145.4544,0,U,25544,999,57246,.17028E-3,.906E-4,0
ORSTED,1999-008B,2026-06-20T06:46:51.633120,14.51809486,.013198,96.4823,78.0948,176.0018,184.2270,0,U,25635,999,44241,.76057E-4,.31E-5,0
LANDSAT 7,1999-020A,2026-06-20T11:22:02.408736,14.63919144,.0001831,97.8580,174.9586,88.2552,65.3906,0,U,25682,999,44632,.64787E-4,.294E-5,0
ORBCOMM FM36,1999-065E,2026-06-20T05:34:34.170816,14.39201742,.0004959,45.0374,145.1294,328.6317,31.4236,0,U,25984,999,38742,.25224E-3,.646E-5,0
DMSP 5D-3 F15 (USA 147),1999-067A,2026-06-20T09:54:27.753408,14.17565570,.000983,98.9959,210.0080,359.8158,126.8856,0,U,25991,999,37110,.6459E-4,.85E-6,0
OPAL (OO-38),2000-004C,2026-06-20T09:04:22.973952,14.37965715,.0036192,100.1909,108.7892,27.1177,333.1885,0,U,26063,999,38374,.54362E-4,.106E-5,0
IMAGE,2000-017A,2026-06-11T08:17:58.695072,1.68665984,.7436383,94.2241,315.2958,288.4674,8.8959,0,U,26113,999,16140,.22926E-1,.11E-6,0
CLUSTER II-FM7 (SAMBA),2000-041A,2026-06-21T14:26:01.080960,0.44827461,.9060197,149.9158,51.6298,268.8497,359.5612,0,U,26410,999,2033,0,.47E-4,0
CLUSTER II-FM8 (TANGO),2000-045B,2026-06-19T16:33:04.991040,0.44407361,.9063456,150.1455,52.4796,269.5212,2.6313,0,U,26464,999,2032,0,.4777E-4,0
MEGSAT-1,2000-057B,2026-06-20T09:34:52.925088,15.05510149,.0042344,64.5503,58.8203,283.4053,76.2345,0,U,26546,999,39814,.14489E-3,.1947E-4,0
PHASE 3D (AO-40),2000-072B,2026-06-19T17:34:25.853088,1.25588319,.7931286,9.4237,350.5334,179.2724,184.2732,0,U,26609,999,11754,0,-.145E-5,0
ODIN,2001-007A,2026-06-20T01:52:40.157184,15.76711423,.00067494,97.3813,212.2073,140.3393,219.8368,0,U,26702,999,38985,.10522952E-2,.171166E-2,0
OMNI-M1,2001-026A,2026-06-16T05:01:03.889056,3.92401638,.0014194,44.8307,245.4893,53.4474,306.7446,0,U,26857,999,20553,0,-.1E-7,0
PCSAT (NO-44),2001-043C,2026-06-20T10:36:32.825376,14.31957058,.0006064,67.0502,235.8536,264.6719,95.3691,0,U,26931,999,29091,.49145E-4,.49E-6,0
PROBA-1,2001-049B,2026-06-21T12:25:14.064960,15.07505285,.0056365,97.9594,181.2016,107.7234,253.0156,0,U,26958,999,34427,.10192E-3,.1532E-4,0
SPOT 5,2002-021A,2026-06-20T08:02:38.890176,14.54752565,.0128181,97.9845,210.0590,266.6257,92.0271,0,U,27421,999,26330,.51998E-4,.198E-5,0
FENGYUN 1D,2002-024B,2026-06-20T09:53:10.924800,14.10224912,.0014558,98.9517,221.7278,231.2448,128.7422,0,U,27431,999,23993,.43724E-4,.33E-6,0
SAUDISAT 1C (SO-50),2002-058C,2026-06-20T11:01:38.558784,14.83052787,.0075194,64.5513,118.8607,261.8620,97.3951,0,U,27607,999,26494,.10244E-3,.719E-5,0
CORIOLIS,2003-001A,2026-06-20T10:31:32.741760,14.19945602,.0013553,98.7125,178.2738,199.0083,161.0590,0,U,27640,999,21468,.53062E-4,.69E-6,0
CUTE-1 (CO-55),2003-031E,2026-06-19T13:35:11.395968,14.24336935,.00096891,98.6736,179.0951,171.1603,188.9749,0,U,27844,999,19201,.10623568E-3,.202E-5,0
CUBESAT XI-IV (CO-57),2003-031J,2026-06-19T23:27:32.070528,14.23622052,.00092194,98.6765,179.2116,188.6492,171.4529,0,U,27848,999,19177,.9310277E-4,.169E-5,0
MOZHAETS 4 (RS22),2003-042A,2026-06-21T13:32:05.487360,14.73473438,.0009954,98.3474,357.0459,253.7036,197.9632,0,U,27939,999,21619,.13137E-3,.799E-5,0
IRS-P6 (RESOURCESAT-1),2003-046A,2026-06-21T13:35:42.479232,14.36164252,.006354,98.1899,208.8664,330.2349,187.8624,0,U,28051,999,18115,.11144E-3,.291E-5,0
